{"fetched_at":"2026-07-12T07:15:57.849Z","source":"https://celestrak.org/NORAD/elements/gp.php?NAME=SENTINEL&FORMAT=JSON","constellation":"sentinel-5p","records":[{"OBJECT_NAME":"SENTINEL-5P","OBJECT_ID":"2017-064A","EPOCH":"2026-07-11T19:14:06.156096","CLASSIFICATION_TYPE":"U","MEAN_MOTION":14.19522945,"ECCENTRICITY":0.00011121,"INCLINATION":98.7929,"RA_OF_ASC_NODE":134.7584,"ARG_OF_PERICENTER":92.2595,"MEAN_ANOMALY":267.8708,"EPHEMERIS_TYPE":0,"NORAD_CAT_ID":42969,"ELEMENT_SET_NO":999,"REV_AT_EPOCH":45305,"BSTAR":0.000024611138,"MEAN_MOTION_DOT":8e-8,"MEAN_MOTION_DDOT":0}]}
